CP3
1 31129U 07012N   12165.57085980  .00000734  00000-0  17598-3 0  1880
2 31129 097.8842 173.5602 0102036 133.9232 227.0401 14.53077182273450
CO-65
1 32785U 08021C   12165.66850738  .00001592  00000-0  20203-3 0 03344
2 32785 097.7995 226.8031 0015777 074.4227 285.8738 14.82991841223249
PRISM
1 33493U 09002B   12166.42840077  .00002587  00000-0  31767-3 0  7886
2 33493 098.1702 306.9246 0017816 308.5494 051.4204 14.83892337183340
SOHLA-1
1 33496U 09002E   12165.83729951  .00000400  00000-0  74952-4 0 07617
2 33496 098.1046 277.5950 0007552 058.1359 302.0581 14.69975468181750
SO-67
1 35870U 09049F   12166.42839084  .00004637  00000-0  19530-3 0   485
2 35870 097.2321 202.2724 0002648 140.6537 342.9503 15.23822169152197
TISAT-1
1 36799U 10035E   12166.36998303  .00001968  00000-0  25478-3 0   646
2 36799 098.0620 242.6842 0014987 176.3797 183.7528 14.81957995104072
STUDSAT
1 36801U 10035G   12165.90347714  .00006013  00000-0  72228-3 0 04615
2 36801 098.0718 242.9100 0012749 164.3930 195.7676 14.84306629104032
FO-69
1 37227U 0        12165.31385081  .00000551  00000-0  85727-4 0 02060
2 37227 071.9687 320.5061 0017601 323.0507 036.9443 14.77080688035526
FO-70
1 37380U 0        12165.31875240  .00000518  00000-0  81583-4 0 02116
2 37380 071.9719 321.0504 0018131 319.9132 040.0692 14.76832026035417
ALMASAT-1
1 38078U 12006B   12166.34852861  .00014679  00000-0  40271-3 0  2995
2 38078 069.4971 323.6890 0760981 252.2672 099.4030 14.09107128 17154
XATCOBEO
1 38082U 12006F   12166.50517906  .00036724  00000-0  89277-3 0  3160
2 38082 069.4956 321.5677 0739698 251.0918 100.8382 14.15942625 17213
NOAA-10
1 16969U 86073A   12165.72585712  .00000075  00000-0  48136-4 0 09568
2 16969 098.5805 194.8415 0011361 244.1366 115.8618 14.27556856339372
NOAA-11
1 19531U 88089A   12165.75053596 -.00000149  00000-0 -54579-4 0 09537
2 19531 098.7306 250.9816 0010381 232.2600 127.7636 14.14969834224024
NOAA-12
1 21263U 91032A   12165.95899888  .00000081  00000-0  53083-4 0 04535
2 21263 098.7289 187.6388 0013086 208.0345 152.0132 14.25500603096094
MET-3/5
1 21655U 91056A   12166.49010021 -.00000397  00000-0 -10636-2 0  4335
2 21655 082.5553 154.0929 0012593 334.1232 025.9259 13.17042172  1536
MET-2/21
1 22782U 93055A   12165.68536838 -.00000059  00000-0 -66730-4 0 04453
2 22782 082.5485 035.2933 0022796 158.7015 201.5106 13.83684184948689
OKEAN-4
1 23317U 94066A   12165.92961857  .00000952  00000-0  11167-3 0 09426
2 23317 082.5406 034.2535 0022089 007.5782 352.5767 14.83804994954323
