Satellite: CP3
Catalog number: 31129
Epoch time:      12165.57085980
Element set:     188
Inclination:      097.8842 deg
RA of node:       173.5602 deg
Eccentricity:    0.0102036
Arg of perigee:   133.9232 deg
Mean anomaly:     227.0401 deg
Mean motion:   14.53077182 rev/day
Decay rate:       7.34e-06 rev/day^2
Epoch rev:           27345
Checksum:              288

Satellite: CO-65
Catalog number: 32785
Epoch time:      12165.66850738
Element set:    0334
Inclination:      097.7995 deg
RA of node:       226.8031 deg
Eccentricity:    0.0015777
Arg of perigee:   074.4227 deg
Mean anomaly:     285.8738 deg
Mean motion:   14.82991841 rev/day
Decay rate:      1.592e-05 rev/day^2
Epoch rev:           22324
Checksum:              352

Satellite: PRISM
Catalog number: 33493
Epoch time:      12166.42840077
Element set:     788
Inclination:      098.1702 deg
RA of node:       306.9246 deg
Eccentricity:    0.0017816
Arg of perigee:   308.5494 deg
Mean anomaly:     051.4204 deg
Mean motion:   14.83892337 rev/day
Decay rate:      2.587e-05 rev/day^2
Epoch rev:           18334
Checksum:              319

Satellite: SOHLA-1
Catalog number: 33496
Epoch time:      12165.83729951
Element set:    0761
Inclination:      098.1046 deg
RA of node:       277.5950 deg
Eccentricity:    0.0007552
Arg of perigee:   058.1359 deg
Mean anomaly:     302.0581 deg
Mean motion:   14.69975468 rev/day
Decay rate:       4.00e-06 rev/day^2
Epoch rev:           18175
Checksum:              326

Satellite: SO-67
Catalog number: 35870
Epoch time:      12166.42839084
Element set:      48
Inclination:      097.2321 deg
RA of node:       202.2724 deg
Eccentricity:    0.0002648
Arg of perigee:   140.6537 deg
Mean anomaly:     342.9503 deg
Mean motion:   15.23822169 rev/day
Decay rate:      4.637e-05 rev/day^2
Epoch rev:           15219
Checksum:              303

Satellite: TISAT-1
Catalog number: 36799
Epoch time:      12166.36998303
Element set:      64
Inclination:      098.0620 deg
RA of node:       242.6842 deg
Eccentricity:    0.0014987
Arg of perigee:   176.3797 deg
Mean anomaly:     183.7528 deg
Mean motion:   14.81957995 rev/day
Decay rate:      1.968e-05 rev/day^2
Epoch rev:           10407
Checksum:              361

Satellite: STUDSAT
Catalog number: 36801
Epoch time:      12165.90347714
Element set:    0461
Inclination:      098.0718 deg
RA of node:       242.9100 deg
Eccentricity:    0.0012749
Arg of perigee:   164.3930 deg
Mean anomaly:     195.7676 deg
Mean motion:   14.84306629 rev/day
Decay rate:      6.013e-05 rev/day^2
Epoch rev:           10403
Checksum:              289

Satellite: FO-69
Catalog number: 37227
Epoch time:      12165.31385081
Element set:    0206
Inclination:      071.9687 deg
RA of node:       320.5061 deg
Eccentricity:    0.0017601
Arg of perigee:   323.0507 deg
Mean anomaly:     036.9443 deg
Mean motion:   14.77080688 rev/day
Decay rate:       5.51e-06 rev/day^2
Epoch rev:           03552
Checksum:              292

Satellite: FO-70
Catalog number: 37380
Epoch time:      12165.31875240
Element set:    0211
Inclination:      071.9719 deg
RA of node:       321.0504 deg
Eccentricity:    0.0018131
Arg of perigee:   319.9132 deg
Mean anomaly:     040.0692 deg
Mean motion:   14.76832026 rev/day
Decay rate:       5.18e-06 rev/day^2
Epoch rev:           03541
Checksum:              265

Satellite: ALMASAT-1
Catalog number: 38078
Epoch time:      12166.34852861
Element set:     299
Inclination:      069.4971 deg
RA of node:       323.6890 deg
Eccentricity:    0.0760981
Arg of perigee:   252.2672 deg
Mean anomaly:     099.4030 deg
Mean motion:   14.09107128 rev/day
Decay rate:     1.4679e-04 rev/day^2
Epoch rev:            1715
Checksum:              331

Satellite: XATCOBEO
Catalog number: 38082
Epoch time:      12166.50517906
Element set:     316
Inclination:      069.4956 deg
RA of node:       321.5677 deg
Eccentricity:    0.0739698
Arg of perigee:   251.0918 deg
Mean anomaly:     100.8382 deg
Mean motion:   14.15942625 rev/day
Decay rate:     3.6724e-04 rev/day^2
Epoch rev:            1721
Checksum:              319

/EX
SB KEPS @ AMSAT  $ORB12166.W
Orbital Elements  12166.WEATHER

HR AMSAT ORBITAL ELEMENTS FOR WEATHER SATELLITES
FROM WA5QGD FORT WORTH,TX June 14, 2012
Send SUBSCRIBE KEPS/UNSUBSCRIBE KEPS to majordomo at amsat.org only
BID: ORB12166.W
TO ALL RADIO AMATEURS BT

Satellite: NOAA-10
Catalog number: 16969
Epoch time:      12165.72585712
Element set:    0956
Inclination:      098.5805 deg
RA of node:       194.8415 deg
Eccentricity:    0.0011361
Arg of perigee:   244.1366 deg
Mean anomaly:     115.8618 deg
Mean motion:   14.27556856 rev/day
Decay rate:        7.5e-07 rev/day^2
Epoch rev:           33937
Checksum:              336

Satellite: NOAA-11
Catalog number: 19531
Epoch time:      12165.75053596
Element set:    0953
Inclination:      098.7306 deg
RA of node:       250.9816 deg
Eccentricity:    0.0010381
Arg of perigee:   232.2600 deg
Mean anomaly:     127.7636 deg
Mean motion:   14.14969834 rev/day
Decay rate:      -1.49e-06 rev/day^2
Epoch rev:           22402
Checksum:              301

Satellite: NOAA-12
Catalog number: 21263
Epoch time:      12165.95899888
Element set:    0453
Inclination:      098.7289 deg
RA of node:       187.6388 deg
Eccentricity:    0.0013086
Arg of perigee:   208.0345 deg
Mean anomaly:     152.0132 deg
Mean motion:   14.25500603 rev/day
Decay rate:        8.1e-07 rev/day^2
Epoch rev:           09609
Checksum:              316

Satellite: MET-3/5
Catalog number: 21655
Epoch time:      12166.49010021
Element set:     433
Inclination:      082.5553 deg
RA of node:       154.0929 deg
Eccentricity:    0.0012593
Arg of perigee:   334.1232 deg
Mean anomaly:     025.9259 deg
Mean motion:   13.17042172 rev/day
Decay rate:      -3.97e-06 rev/day^2
Epoch rev:             153
Checksum:              265

Satellite: MET-2/21
Catalog number: 22782
Epoch time:      12165.68536838
Element set:    0445
Inclination:      082.5485 deg
RA of node:       035.2933 deg
Eccentricity:    0.0022796
Arg of perigee:   158.7015 deg
Mean anomaly:     201.5106 deg
Mean motion:   13.83684184 rev/day
Decay rate:       -5.9e-07 rev/day^2
Epoch rev:           94868
Checksum:              333

Satellite: OKEAN-4
Catalog number: 23317
Epoch time:      12165.92961857
Element set:    0942
Inclination:      082.5406 deg
RA of node:       034.2535 deg
Eccentricity:    0.0022089
Arg of perigee:   007.5782 deg
Mean anomaly:     352.5767 deg
Mean motion:   14.83804994 rev/day
Decay rate:       9.52e-06 rev/day^2
Epoch rev:           95432
Checksum:              328

